[{"OBJECT_NAME":"STARLINK-5645","OBJECT_ID":"2023-014AQ","EPOCH":"2026-03-09T10:49:04.836288","MEAN_MOTION":14.98330342,"ECCENTRICITY":0.00031006,"INCLINATION":69.999,"RA_OF_ASC_NODE":85.1733,"ARG_OF_PERICENTER":267.4686,"MEAN_ANOMALY":92.6118,"EPHEMERIS_TYPE":0,"CLASSIFICATION_TYPE":"U","NORAD_CAT_ID":55429,"ELEMENT_SET_NO":999,"REV_AT_EPOCH":17152,"BSTAR":4.6629793e-5,"MEAN_MOTION_DOT":4.63e-6,"MEAN_MOTION_DDOT":0},{"OBJECT_NAME":"CZ-2D DEB","OBJECT_ID":"2018-048E","EPOCH":"2026-03-09T22:09:24.485184","MEAN_MOTION":14.95292309,"ECCENTRICITY":0.00245463,"INCLINATION":98.262,"RA_OF_ASC_NODE":231.1035,"ARG_OF_PERICENTER":114.5757,"MEAN_ANOMALY":245.8024,"EPHEMERIS_TYPE":0,"CLASSIFICATION_TYPE":"U","NORAD_CAT_ID":43490,"ELEMENT_SET_NO":999,"REV_AT_EPOCH":41934,"BSTAR":0.00070357513,"MEAN_MOTION_DOT":7.737e-5,"MEAN_MOTION_DDOT":0}]
